[{"OBJECT_NAME":"FLYING LAPTOP","OBJECT_ID":"2017-042G","EPOCH":"2026-03-07T04:15:18.012384","MEAN_MOTION":15.00494369,"ECCENTRICITY":0.0018941,"INCLINATION":97.4268,"RA_OF_ASC_NODE":225.9628,"ARG_OF_PERICENTER":103.5602,"MEAN_ANOMALY":256.7734,"EPHEMERIS_TYPE":0,"CLASSIFICATION_TYPE":"U","NORAD_CAT_ID":42831,"ELEMENT_SET_NO":999,"REV_AT_EPOCH":47115,"BSTAR":0.00023799,"MEAN_MOTION_DOT":2.952e-5,"MEAN_MOTION_DDOT":0},{"OBJECT_NAME":"HAWK-A","OBJECT_ID":"2018-099H","EPOCH":"2026-03-07T02:44:31.809984","MEAN_MOTION":15.23176868,"ECCENTRICITY":0.0034336,"INCLINATION":97.4053,"RA_OF_ASC_NODE":119.7146,"ARG_OF_PERICENTER":285.0222,"MEAN_ANOMALY":74.7215,"EPHEMERIS_TYPE":0,"CLASSIFICATION_TYPE":"U","NORAD_CAT_ID":43765,"ELEMENT_SET_NO":999,"REV_AT_EPOCH":39755,"BSTAR":0.0003483,"MEAN_MOTION_DOT":8.297e-5,"MEAN_MOTION_DDOT":0},{"OBJECT_NAME":"HAWK-B","OBJECT_ID":"2018-099AN","EPOCH":"2026-03-07T02:00:00.618336","MEAN_MOTION":15.21483438,"ECCENTRICITY":0.0031437,"INCLINATION":97.4101,"RA_OF_ASC_NODE":119.3035,"ARG_OF_PERICENTER":302.9671,"MEAN_ANOMALY":56.8544,"EPHEMERIS_TYPE":0,"CLASSIFICATION_TYPE":"U","NORAD_CAT_ID":43794,"ELEMENT_SET_NO":999,"REV_AT_EPOCH":39750,"BSTAR":0.00035473,"MEAN_MOTION_DOT":8.016e-5,"MEAN_MOTION_DDOT":0},{"OBJECT_NAME":"HAWK-C","OBJECT_ID":"2018-099AT","EPOCH":"2026-03-07T02:46:54.649920","MEAN_MOTION":15.26343476,"ECCENTRICITY":0.0040461,"INCLINATION":97.4029,"RA_OF_ASC_NODE":120.1476,"ARG_OF_PERICENTER":286.8621,"MEAN_ANOMALY":72.8182,"EPHEMERIS_TYPE":0,"CLASSIFICATION_TYPE":"U","NORAD_CAT_ID":43799,"ELEMENT_SET_NO":999,"REV_AT_EPOCH":39833,"BSTAR":0.00036533,"MEAN_MOTION_DOT":9.645e-5,"MEAN_MOTION_DDOT":0},{"OBJECT_NAME":"SALSAT","OBJECT_ID":"2020-068K","EPOCH":"2026-03-06T22:08:58.267104","MEAN_MOTION":15.28115498,"ECCENTRICITY":0.0008446,"INCLINATION":97.8857,"RA_OF_ASC_NODE":62.8923,"ARG_OF_PERICENTER":308.5318,"MEAN_ANOMALY":51.5163,"EPHEMERIS_TYPE":0,"CLASSIFICATION_TYPE":"U","NORAD_CAT_ID":46495,"ELEMENT_SET_NO":999,"REV_AT_EPOCH":29973,"BSTAR":0.00041467,"MEAN_MOTION_DOT":0.00011302,"MEAN_MOTION_DDOT":0},{"OBJECT_NAME":"HAWK-2C","OBJECT_ID":"2021-006CT","EPOCH":"2026-03-07T01:34:14.299392","MEAN_MOTION":15.33235853,"ECCENTRICITY":0.0006694,"INCLINATION":97.2416,"RA_OF_ASC_NODE":112.4381,"ARG_OF_PERICENTER":193.7627,"MEAN_ANOMALY":166.3434,"EPHEMERIS_TYPE":0,"CLASSIFICATION_TYPE":"U","NORAD_CAT_ID":47502,"ELEMENT_SET_NO":999,"REV_AT_EPOCH":28384,"BSTAR":0.0002482,"MEAN_MOTION_DOT":7.899e-5,"MEAN_MOTION_DDOT":0},{"OBJECT_NAME":"HAWK-2A","OBJECT_ID":"2021-006CW","EPOCH":"2026-03-07T01:39:20.346336","MEAN_MOTION":15.33253652,"ECCENTRICITY":0.0006158,"INCLINATION":97.2463,"RA_OF_ASC_NODE":113.059,"ARG_OF_PERICENTER":197.3275,"MEAN_ANOMALY":162.7759,"EPHEMERIS_TYPE":0,"CLASSIFICATION_TYPE":"U","NORAD_CAT_ID":47505,"ELEMENT_SET_NO":999,"REV_AT_EPOCH":28384,"BSTAR":0.00024937,"MEAN_MOTION_DOT":7.94e-5,"MEAN_MOTION_DDOT":0},{"OBJECT_NAME":"HAWK-2B","OBJECT_ID":"2021-006CZ","EPOCH":"2026-03-07T01:34:45.037920","MEAN_MOTION":15.33234385,"ECCENTRICITY":0.0006799,"INCLINATION":97.2335,"RA_OF_ASC_NODE":111.5591,"ARG_OF_PERICENTER":195.1415,"MEAN_ANOMALY":164.9625,"EPHEMERIS_TYPE":0,"CLASSIFICATION_TYPE":"U","NORAD_CAT_ID":47508,"ELEMENT_SET_NO":999,"REV_AT_EPOCH":28384,"BSTAR":0.00028802,"MEAN_MOTION_DOT":9.18e-5,"MEAN_MOTION_DDOT":0},{"OBJECT_NAME":"HAWK-3B","OBJECT_ID":"2021-059BE","EPOCH":"2026-03-07T01:12:53.971488","MEAN_MOTION":15.61319494,"ECCENTRICITY":0.0005264,"INCLINATION":97.6717,"RA_OF_ASC_NODE":253.7152,"ARG_OF_PERICENTER":348.5076,"MEAN_ANOMALY":11.6059,"EPHEMERIS_TYPE":0,"CLASSIFICATION_TYPE":"U","NORAD_CAT_ID":48931,"ELEMENT_SET_NO":999,"REV_AT_EPOCH":26187,"BSTAR":0.0005193,"MEAN_MOTION_DOT":0.00044188,"MEAN_MOTION_DDOT":0},{"OBJECT_NAME":"HAWK-3C","OBJECT_ID":"2021-059BX","EPOCH":"2026-03-07T01:12:33.418656","MEAN_MOTION":15.61330398,"ECCENTRICITY":0.0005697,"INCLINATION":97.6864,"RA_OF_ASC_NODE":259.2093,"ARG_OF_PERICENTER":349.6538,"MEAN_ANOMALY":10.46,"EPHEMERIS_TYPE":0,"CLASSIFICATION_TYPE":"U","NORAD_CAT_ID":48948,"ELEMENT_SET_NO":999,"REV_AT_EPOCH":26187,"BSTAR":0.00053576,"MEAN_MOTION_DOT":0.00045624,"MEAN_MOTION_DDOT":0},{"OBJECT_NAME":"HAWK-3A","OBJECT_ID":"2021-059CG","EPOCH":"2026-03-07T01:12:18.199296","MEAN_MOTION":15.61321372,"ECCENTRICITY":0.0005358,"INCLINATION":97.6797,"RA_OF_ASC_NODE":256.4996,"ARG_OF_PERICENTER":349.044,"MEAN_ANOMALY":11.0699,"EPHEMERIS_TYPE":0,"CLASSIFICATION_TYPE":"U","NORAD_CAT_ID":48957,"ELEMENT_SET_NO":999,"REV_AT_EPOCH":26187,"BSTAR":0.00049093,"MEAN_MOTION_DOT":0.00041759,"MEAN_MOTION_DDOT":0},{"OBJECT_NAME":"HAWK-5C","OBJECT_ID":"2022-057Y","EPOCH":"2026-03-07T03:18:18.512064","MEAN_MOTION":15.47391841,"ECCENTRICITY":0.0005648,"INCLINATION":97.6453,"RA_OF_ASC_NODE":219.6237,"ARG_OF_PERICENTER":84.1509,"MEAN_ANOMALY":276.0384,"EPHEMERIS_TYPE":0,"CLASSIFICATION_TYPE":"U","NORAD_CAT_ID":52754,"ELEMENT_SET_NO":999,"REV_AT_EPOCH":21054,"BSTAR":0.00058068,"MEAN_MOTION_DOT":0.00029706,"MEAN_MOTION_DDOT":0},{"OBJECT_NAME":"HAWK-5B","OBJECT_ID":"2022-057AA","EPOCH":"2026-03-07T03:18:07.050240","MEAN_MOTION":15.47391247,"ECCENTRICITY":0.0005627,"INCLINATION":97.6455,"RA_OF_ASC_NODE":217.9639,"ARG_OF_PERICENTER":78.9773,"MEAN_ANOMALY":281.2109,"EPHEMERIS_TYPE":0,"CLASSIFICATION_TYPE":"U","NORAD_CAT_ID":52756,"ELEMENT_SET_NO":999,"REV_AT_EPOCH":21054,"BSTAR":0.00053777,"MEAN_MOTION_DOT":0.00027495,"MEAN_MOTION_DDOT":0},{"OBJECT_NAME":"HAWK-5A","OBJECT_ID":"2022-057AB","EPOCH":"2026-03-07T03:17:42.972288","MEAN_MOTION":15.47390582,"ECCENTRICITY":0.0006048,"INCLINATION":97.6456,"RA_OF_ASC_NODE":218.7976,"ARG_OF_PERICENTER":81.2343,"MEAN_ANOMALY":278.959,"EPHEMERIS_TYPE":0,"CLASSIFICATION_TYPE":"U","NORAD_CAT_ID":52757,"ELEMENT_SET_NO":999,"REV_AT_EPOCH":21054,"BSTAR":0.00051591,"MEAN_MOTION_DOT":0.00026372,"MEAN_MOTION_DDOT":0},{"OBJECT_NAME":"HAWK-6B","OBJECT_ID":"2023-011A","EPOCH":"2026-03-06T12:33:31.030848","MEAN_MOTION":15.21857101,"ECCENTRICITY":0.00024505,"INCLINATION":40.5119,"RA_OF_ASC_NODE":230.4147,"ARG_OF_PERICENTER":0.8362,"MEAN_ANOMALY":359.2451,"EPHEMERIS_TYPE":0,"CLASSIFICATION_TYPE":"U","NORAD_CAT_ID":55324,"ELEMENT_SET_NO":999,"REV_AT_EPOCH":17219,"BSTAR":0.00036490516,"MEAN_MOTION_DOT":8.286e-5,"MEAN_MOTION_DDOT":0},{"OBJECT_NAME":"HAWK-6C","OBJECT_ID":"2023-011C","EPOCH":"2026-03-06T21:59:38.831424","MEAN_MOTION":15.21851399,"ECCENTRICITY":0.0002913,"INCLINATION":40.4836,"RA_OF_ASC_NODE":224.9998,"ARG_OF_PERICENTER":351.1545,"MEAN_ANOMALY":8.9212,"EPHEMERIS_TYPE":0,"CLASSIFICATION_TYPE":"U","NORAD_CAT_ID":55326,"ELEMENT_SET_NO":999,"REV_AT_EPOCH":17226,"BSTAR":0.00030814,"MEAN_MOTION_DOT":6.965e-5,"MEAN_MOTION_DDOT":0},{"OBJECT_NAME":"HAWK-6A","OBJECT_ID":"2023-011D","EPOCH":"2026-03-06T18:50:39.892416","MEAN_MOTION":15.21859003,"ECCENTRICITY":0.0002606,"INCLINATION":40.4981,"RA_OF_ASC_NODE":227.3681,"ARG_OF_PERICENTER":345.4771,"MEAN_ANOMALY":14.5962,"EPHEMERIS_TYPE":0,"CLASSIFICATION_TYPE":"U","NORAD_CAT_ID":55327,"ELEMENT_SET_NO":999,"REV_AT_EPOCH":17224,"BSTAR":0.00039351,"MEAN_MOTION_DOT":8.953e-5,"MEAN_MOTION_DDOT":0}]
