FLYING LAPTOP           
1 42831U 17042G   26066.17729181  .00002952  00000+0  23799-3 0  9998
2 42831  97.4268 225.9628 0018941 103.5602 256.7734 15.00494369471153
HAWK-A                  
1 43765U 18099H   26066.11425706  .00008297  00000+0  34830-3 0  9994
2 43765  97.4053 119.7146 0034336 285.0222  74.7215 15.23176868397556
HAWK-B                  
1 43794U 18099AN  26066.08334049  .00008016  00000+0  35473-3 0  9994
2 43794  97.4101 119.3035 0031437 302.9671  56.8544 15.21483438397504
HAWK-C                  
1 43799U 18099AT  26066.11591030  .00009645  00000+0  36533-3 0  9995
2 43799  97.4029 120.1476 0040461 286.8621  72.8182 15.26343476398339
SALSAT                  
1 46495U 20068K   26065.92289661  .00011302  00000+0  41467-3 0  9997
2 46495  97.8857  62.8923 0008446 308.5318  51.5163 15.28115498299739
HAWK-2C                 
1 47502U 21006CT  26066.06544328  .00007899  00000+0  24820-3 0  9990
2 47502  97.2416 112.4381 0006694 193.7627 166.3434 15.33235853283849
HAWK-2A                 
1 47505U 21006CW  26066.06898549  .00007940  00000+0  24937-3 0  9996
2 47505  97.2463 113.0590 0006158 197.3275 162.7759 15.33253652283844
HAWK-2B                 
1 47508U 21006CZ  26066.06579905  .00009180  00000+0  28802-3 0  9994
2 47508  97.2335 111.5591 0006799 195.1415 164.9625 15.33234385283840
HAWK-3B                 
1 48931U 21059BE  26066.05062467  .00044188  00000+0  51930-3 0  9997
2 48931  97.6717 253.7152 0005264 348.5076  11.6059 15.61319494261878
HAWK-3C                 
1 48948U 21059BX  26066.05038679  .00045624  00000+0  53576-3 0  9997
2 48948  97.6864 259.2093 0005697 349.6538  10.4600 15.61330398261874
HAWK-3A                 
1 48957U 21059CG  26066.05021064  .00041759  00000+0  49093-3 0  9991
2 48957  97.6797 256.4996 0005358 349.0440  11.0699 15.61321372261877
HAWK-5C                 
1 52754U 22057Y   26066.13771426  .00029706  00000+0  58068-3 0  9993
2 52754  97.6453 219.6237 0005648  84.1509 276.0384 15.47391841210544
HAWK-5B                 
1 52756U 22057AA  26066.13758160  .00027495  00000+0  53777-3 0  9990
2 52756  97.6455 217.9639 0005627  78.9773 281.2109 15.47391247210549
HAWK-5A                 
1 52757U 22057AB  26066.13730292  .00026372  00000+0  51591-3 0  9992
2 52757  97.6456 218.7976 0006048  81.2343 278.9590 15.47390582210540
HAWK-6B                 
1 55324U 23011A   26065.52327582  .00008286  00000+0  36491-3 0  9998
2 55324  40.5119 230.4147 0002450   0.8362 359.2451 15.21857101172192
HAWK-6C                 
1 55326U 23011C   26065.91642166  .00006965  00000+0  30814-3 0  9996
2 55326  40.4836 224.9998 0002913 351.1545   8.9212 15.21851399172264
HAWK-6A                 
1 55327U 23011D   26065.78518394  .00008953  00000+0  39351-3 0  9991
2 55327  40.4981 227.3681 0002606 345.4771  14.5962 15.21859003172241
